[{"OBJECT_NAME":"STARLINK-30309","OBJECT_ID":"2023-122A","EPOCH":"2026-03-09T09:53:54.246624","MEAN_MOTION":15.26712855,"ECCENTRICITY":0.00010941,"INCLINATION":42.9987,"RA_OF_ASC_NODE":94.1486,"ARG_OF_PERICENTER":299.3962,"MEAN_ANOMALY":60.678,"EPHEMERIS_TYPE":0,"CLASSIFICATION_TYPE":"U","NORAD_CAT_ID":57632,"ELEMENT_SET_NO":999,"REV_AT_EPOCH":14216,"BSTAR":-0.00015787097,"MEAN_MOTION_DOT":-4.488e-5,"MEAN_MOTION_DDOT":0},{"OBJECT_NAME":"TRANSPORTER-13 OBJECT AH","OBJECT_ID":"2025-052AH","EPOCH":"2026-03-09T15:34:17.115744","MEAN_MOTION":15.25468797,"ECCENTRICITY":0.000807,"INCLINATION":97.3962,"RA_OF_ASC_NODE":323.1443,"ARG_OF_PERICENTER":138.7508,"MEAN_ANOMALY":221.4341,"EPHEMERIS_TYPE":0,"CLASSIFICATION_TYPE":"U","NORAD_CAT_ID":63241,"ELEMENT_SET_NO":999,"REV_AT_EPOCH":5475,"BSTAR":0.00055931,"MEAN_MOTION_DOT":0.00014108,"MEAN_MOTION_DDOT":0}]
